YAOGAN-41               
1 58582U 23197A   26061.82652824 -.00000379  00000+0  00000+0 0  9990
2 58582   3.3256 311.5720 0010433 181.9207  87.8328  1.00275905  8257
OVZON-3                 
1 58698U 24003A   26061.52866572  .00000034  00000+0  00000+0 0  9996
2 58698   0.0144 152.6879 0000139 172.4278  85.1763  1.00273743  6372
INSAT-3DS               
1 58990U 24033A   26061.67573977 -.00000172  00000+0  00000+0 0  9998
2 58990   0.0600 265.4797 0002309  89.0478 131.2531  1.00270355 46008
MERAH PUTIH 2           
1 58995U 24035A   26061.72475373 -.00000374  00000+0  00000+0 0  9996
2 58995   0.0119 158.7999 0001058 189.9140 185.6378  1.00271761  7520
TJS-11                  
1 59020U 24037A   26061.90170157 -.00000384  00000+0  00000+0 0  9991
2 59020   4.3417 325.7840 0005756  39.5509 240.2619  1.00274694  7510
HULIANWAN GAOGUI-01 (H*)
1 59069U 24040A   26061.73730796  .00000139  00000+0  00000+0 0  9997
2 59069   0.0598 317.0221 0004341  39.0763 103.5220  1.00273246  6261
EUTELSAT 36D            
1 59346U 24059A   26061.73782796  .00000139  00000+0  00000+0 0  9992
2 59346   0.0129 136.6074 0000317 175.1047 150.2665  1.00269961  7088
PAKSAT-MM1              
1 59915U 24104A   26061.16783184  .00000136  00000+0  00000+0 0  9991
2 59915   0.0078 133.5479 0003002 201.1206 283.9197  1.00269860  6451
EKRAN 2 DEB             
1 59987U 77092N   26061.61065278 -.00000375  00000+0  00000+0 0  9997
2 59987   4.4002 275.3679 0011737 223.1825 355.3281  1.00193310 62048
ASTRA 1P (SES-24)       
1 60086U 24115A   26061.74937681  .00000103  00000+0  00000+0 0  9995
2 60086   0.0587 335.9989 0005190 347.8246 125.6574  1.00270503  6135
GOES 19                 
1 60133U 24119A   26061.50188560 -.00000265  00000+0  00000+0 0  9990
2 60133   0.0013 214.6235 0000922 158.0579 253.0696  1.00272345  5897
ZHONGXING-3A            
1 60179U 24122A   26060.32459902  .00000000  00000+0  00000+0 0  9990
2 60179   0.0259 117.6735 0001688 307.8431 312.0470  1.00269680  6229
TURKSAT 6A              
1 60233U 24127A   26061.73904131  .00000130  00000+0  00000+0 0  9995
2 60233   0.0421 215.1314 0002970  78.5012 174.9203  1.00272313  5944
HULIANWAN GAOGUI-02 (H*)
1 60327U 24135A   26061.85808884 -.00000190  00000+0  00000+0 0  9996
2 60327   0.0387  16.8421 0007602 323.9197 281.9709  1.00269256  6439
ZHONGXING-4A            
1 60606U 24151A   26061.75420804 -.00000381  00000+0  00000+0 0  9997
2 60606   1.5892 271.9500 0001528  81.9596 196.3142  1.00270255  5680
HULIANWAN GAOGUI-03 (H*)
1 61503U 24181A   26061.57277927 -.00000257  00000+0  00000+0 0  9995
2 61503   0.0362  25.8129 0000401 124.8981 138.6711  1.00266785  5752
DSN-3 (KIRAMEKI-3)      
1 61733U 24198A   26061.79289498 -.00000267  00000+0  00000+0 0  9999
2 61733   0.0287 249.6707 0001413  68.6800 271.6924  1.00270223  4856
