[{"OBJECT_NAME":"YAOGAN-41","OBJECT_ID":"2023-197A","EPOCH":"2026-03-02T19:50:12.039936","MEAN_MOTION":1.00275905,"ECCENTRICITY":0.0010433,"INCLINATION":3.3256,"RA_OF_ASC_NODE":311.572,"ARG_OF_PERICENTER":181.9207,"MEAN_ANOMALY":87.8328,"EPHEMERIS_TYPE":0,"CLASSIFICATION_TYPE":"U","NORAD_CAT_ID":58582,"ELEMENT_SET_NO":999,"REV_AT_EPOCH":825,"BSTAR":0,"MEAN_MOTION_DOT":-3.79e-6,"MEAN_MOTION_DDOT":0},{"OBJECT_NAME":"OVZON-3","OBJECT_ID":"2024-003A","EPOCH":"2026-03-02T12:41:16.718208","MEAN_MOTION":1.00273743,"ECCENTRICITY":1.39e-5,"INCLINATION":0.0144,"RA_OF_ASC_NODE":152.6879,"ARG_OF_PERICENTER":172.4278,"MEAN_ANOMALY":85.1763,"EPHEMERIS_TYPE":0,"CLASSIFICATION_TYPE":"U","NORAD_CAT_ID":58698,"ELEMENT_SET_NO":999,"REV_AT_EPOCH":637,"BSTAR":0,"MEAN_MOTION_DOT":3.4e-7,"MEAN_MOTION_DDOT":0},{"OBJECT_NAME":"INSAT-3DS","OBJECT_ID":"2024-033A","EPOCH":"2026-03-02T16:13:03.916128","MEAN_MOTION":1.00270355,"ECCENTRICITY":0.0002309,"INCLINATION":0.06,"RA_OF_ASC_NODE":265.4797,"ARG_OF_PERICENTER":89.0478,"MEAN_ANOMALY":131.2531,"EPHEMERIS_TYPE":0,"CLASSIFICATION_TYPE":"U","NORAD_CAT_ID":58990,"ELEMENT_SET_NO":999,"REV_AT_EPOCH":4600,"BSTAR":0,"MEAN_MOTION_DOT":-1.72e-6,"MEAN_MOTION_DDOT":0},{"OBJECT_NAME":"MERAH PUTIH 2","OBJECT_ID":"2024-035A","EPOCH":"2026-03-02T17:23:38.722272","MEAN_MOTION":1.00271761,"ECCENTRICITY":0.0001058,"INCLINATION":0.0119,"RA_OF_ASC_NODE":158.7999,"ARG_OF_PERICENTER":189.914,"MEAN_ANOMALY":185.6378,"EPHEMERIS_TYPE":0,"CLASSIFICATION_TYPE":"U","NORAD_CAT_ID":58995,"ELEMENT_SET_NO":999,"REV_AT_EPOCH":752,"BSTAR":0,"MEAN_MOTION_DOT":-3.74e-6,"MEAN_MOTION_DDOT":0},{"OBJECT_NAME":"TJS-11","OBJECT_ID":"2024-037A","EPOCH":"2026-03-02T21:38:27.015648","MEAN_MOTION":1.00274694,"ECCENTRICITY":0.0005756,"INCLINATION":4.3417,"RA_OF_ASC_NODE":325.784,"ARG_OF_PERICENTER":39.5509,"MEAN_ANOMALY":240.2619,"EPHEMERIS_TYPE":0,"CLASSIFICATION_TYPE":"U","NORAD_CAT_ID":59020,"ELEMENT_SET_NO":999,"REV_AT_EPOCH":751,"BSTAR":0,"MEAN_MOTION_DOT":-3.84e-6,"MEAN_MOTION_DDOT":0},{"OBJECT_NAME":"HULIANWAN GAOGUI-01 (HG-01)","OBJECT_ID":"2024-040A","EPOCH":"2026-03-02T17:41:43.407744","MEAN_MOTION":1.00273246,"ECCENTRICITY":0.0004341,"INCLINATION":0.0598,"RA_OF_ASC_NODE":317.0221,"ARG_OF_PERICENTER":39.0763,"MEAN_ANOMALY":103.522,"EPHEMERIS_TYPE":0,"CLASSIFICATION_TYPE":"U","NORAD_CAT_ID":59069,"ELEMENT_SET_NO":999,"REV_AT_EPOCH":626,"BSTAR":0,"MEAN_MOTION_DOT":1.39e-6,"MEAN_MOTION_DDOT":0},{"OBJECT_NAME":"EUTELSAT 36D","OBJECT_ID":"2024-059A","EPOCH":"2026-03-02T17:42:28.335744","MEAN_MOTION":1.00269961,"ECCENTRICITY":3.17e-5,"INCLINATION":0.0129,"RA_OF_ASC_NODE":136.6074,"ARG_OF_PERICENTER":175.1047,"MEAN_ANOMALY":150.2665,"EPHEMERIS_TYPE":0,"CLASSIFICATION_TYPE":"U","NORAD_CAT_ID":59346,"ELEMENT_SET_NO":999,"REV_AT_EPOCH":708,"BSTAR":0,"MEAN_MOTION_DOT":1.39e-6,"MEAN_MOTION_DDOT":0},{"OBJECT_NAME":"PAKSAT-MM1","OBJECT_ID":"2024-104A","EPOCH":"2026-03-02T04:01:40.670976","MEAN_MOTION":1.0026986,"ECCENTRICITY":0.00030028,"INCLINATION":0.0078,"RA_OF_ASC_NODE":133.5479,"ARG_OF_PERICENTER":201.1206,"MEAN_ANOMALY":283.9197,"EPHEMERIS_TYPE":0,"CLASSIFICATION_TYPE":"U","NORAD_CAT_ID":59915,"ELEMENT_SET_NO":999,"REV_AT_EPOCH":645,"BSTAR":0,"MEAN_MOTION_DOT":1.36e-6,"MEAN_MOTION_DDOT":0},{"OBJECT_NAME":"EKRAN 2 DEB","OBJECT_ID":"1977-092N","EPOCH":"2026-03-02T14:39:20.400192","MEAN_MOTION":1.0019331,"ECCENTRICITY":0.0011737,"INCLINATION":4.4002,"RA_OF_ASC_NODE":275.3679,"ARG_OF_PERICENTER":223.1825,"MEAN_ANOMALY":355.3281,"EPHEMERIS_TYPE":0,"CLASSIFICATION_TYPE":"U","NORAD_CAT_ID":59987,"ELEMENT_SET_NO":999,"REV_AT_EPOCH":6204,"BSTAR":0,"MEAN_MOTION_DOT":-3.75e-6,"MEAN_MOTION_DDOT":0},{"OBJECT_NAME":"ASTRA 1P (SES-24)","OBJECT_ID":"2024-115A","EPOCH":"2026-03-02T17:59:06.156384","MEAN_MOTION":1.00270503,"ECCENTRICITY":0.000519,"INCLINATION":0.0587,"RA_OF_ASC_NODE":335.9989,"ARG_OF_PERICENTER":347.8246,"MEAN_ANOMALY":125.6574,"EPHEMERIS_TYPE":0,"CLASSIFICATION_TYPE":"U","NORAD_CAT_ID":60086,"ELEMENT_SET_NO":999,"REV_AT_EPOCH":613,"BSTAR":0,"MEAN_MOTION_DOT":1.03e-6,"MEAN_MOTION_DDOT":0},{"OBJECT_NAME":"GOES 19","OBJECT_ID":"2024-119A","EPOCH":"2026-03-02T12:02:42.915840","MEAN_MOTION":1.00272345,"ECCENTRICITY":9.22e-5,"INCLINATION":0.0013,"RA_OF_ASC_NODE":214.6235,"ARG_OF_PERICENTER":158.0579,"MEAN_ANOMALY":253.0696,"EPHEMERIS_TYPE":0,"CLASSIFICATION_TYPE":"U","NORAD_CAT_ID":60133,"ELEMENT_SET_NO":999,"REV_AT_EPOCH":589,"BSTAR":0,"MEAN_MOTION_DOT":-2.65e-6,"MEAN_MOTION_DDOT":0},{"OBJECT_NAME":"ZHONGXING-3A","OBJECT_ID":"2024-122A","EPOCH":"2026-03-01T07:47:25.355328","MEAN_MOTION":1.0026968,"ECCENTRICITY":0.0001688,"INCLINATION":0.0259,"RA_OF_ASC_NODE":117.6735,"ARG_OF_PERICENTER":307.8431,"MEAN_ANOMALY":312.047,"EPHEMERIS_TYPE":0,"CLASSIFICATION_TYPE":"U","NORAD_CAT_ID":60179,"ELEMENT_SET_NO":999,"REV_AT_EPOCH":622,"BSTAR":0,"MEAN_MOTION_DOT":0,"MEAN_MOTION_DDOT":0},{"OBJECT_NAME":"TURKSAT 6A","OBJECT_ID":"2024-127A","EPOCH":"2026-03-02T17:44:13.169184","MEAN_MOTION":1.00272313,"ECCENTRICITY":0.000297,"INCLINATION":0.0421,"RA_OF_ASC_NODE":215.1314,"ARG_OF_PERICENTER":78.5012,"MEAN_ANOMALY":174.9203,"EPHEMERIS_TYPE":0,"CLASSIFICATION_TYPE":"U","NORAD_CAT_ID":60233,"ELEMENT_SET_NO":999,"REV_AT_EPOCH":594,"BSTAR":0,"MEAN_MOTION_DOT":1.3e-6,"MEAN_MOTION_DDOT":0},{"OBJECT_NAME":"HULIANWAN GAOGUI-02 (HG-02)","OBJECT_ID":"2024-135A","EPOCH":"2026-03-02T20:35:38.875776","MEAN_MOTION":1.00269256,"ECCENTRICITY":0.0007602,"INCLINATION":0.0387,"RA_OF_ASC_NODE":16.8421,"ARG_OF_PERICENTER":323.9197,"MEAN_ANOMALY":281.9709,"EPHEMERIS_TYPE":0,"CLASSIFICATION_TYPE":"U","NORAD_CAT_ID":60327,"ELEMENT_SET_NO":999,"REV_AT_EPOCH":643,"BSTAR":0,"MEAN_MOTION_DOT":-1.9e-6,"MEAN_MOTION_DDOT":0},{"OBJECT_NAME":"ZHONGXING-4A","OBJECT_ID":"2024-151A","EPOCH":"2026-03-02T18:06:03.574656","MEAN_MOTION":1.00270255,"ECCENTRICITY":0.0001528,"INCLINATION":1.5892,"RA_OF_ASC_NODE":271.95,"ARG_OF_PERICENTER":81.9596,"MEAN_ANOMALY":196.3142,"EPHEMERIS_TYPE":0,"CLASSIFICATION_TYPE":"U","NORAD_CAT_ID":60606,"ELEMENT_SET_NO":999,"REV_AT_EPOCH":568,"BSTAR":0,"MEAN_MOTION_DOT":-3.81e-6,"MEAN_MOTION_DDOT":0},{"OBJECT_NAME":"HULIANWAN GAOGUI-03 (HG-03)","OBJECT_ID":"2024-181A","EPOCH":"2026-03-02T13:44:48.128928","MEAN_MOTION":1.00266785,"ECCENTRICITY":4.01e-5,"INCLINATION":0.0362,"RA_OF_ASC_NODE":25.8129,"ARG_OF_PERICENTER":124.8981,"MEAN_ANOMALY":138.6711,"EPHEMERIS_TYPE":0,"CLASSIFICATION_TYPE":"U","NORAD_CAT_ID":61503,"ELEMENT_SET_NO":999,"REV_AT_EPOCH":575,"BSTAR":0,"MEAN_MOTION_DOT":-2.57e-6,"MEAN_MOTION_DDOT":0},{"OBJECT_NAME":"DSN-3 (KIRAMEKI-3)","OBJECT_ID":"2024-198A","EPOCH":"2026-03-02T19:01:46.126272","MEAN_MOTION":1.00270223,"ECCENTRICITY":0.0001413,"INCLINATION":0.0287,"RA_OF_ASC_NODE":249.6707,"ARG_OF_PERICENTER":68.68,"MEAN_ANOMALY":271.6924,"EPHEMERIS_TYPE":0,"CLASSIFICATION_TYPE":"U","NORAD_CAT_ID":61733,"ELEMENT_SET_NO":999,"REV_AT_EPOCH":485,"BSTAR":0,"MEAN_MOTION_DOT":-2.67e-6,"MEAN_MOTION_DDOT":0}]
